#dP2024  2 29  0  0  0.00000000      96 __u+U IGS20 EXT  IAC
## 2303 345600.00000000   900.00000000 60369 0.0000000000000
+  119   C06C07C08C09C10C11C12C13C14C16C19C20C21C22C23C24C25
+        C26C27C28C29C30C32C33C34C35C36C37C38C39C40C41C42C43
+        C44C45C46E02E03E04E05E07E08E09E10E11E12E13E14E15E18
+        E19E21E24E25E26E27E30E31E33E34E36G01G02G03G04G05G06
+        G07G08G09G10G11G12G13G14G15G16G17G18G19G20G21G22G23
+        G24G25G26G27G28G29G30G31G32J02J03J04R01R02R03R04R05
+        R07R08R09R11R12R13R14R15R16R17R18R19R20R21R22R24R26
++        10 10 10 10  9  9  9 10  8  9  8  8  7  8  7  8  6
++         7  6  8  9  7  7  8  9  8 10  8  9 11 11  7  9  8
++         9  8  9  7  6  6  7  7  6  6  7  8  6  7  7  6  8
++         6  7  6  6  8  7  7  6  7  6  7  7  7  8  7  7  7
++         7  8  5  6  7  6  6  7  6  7  8  6  8  7  7  6  7
++         7  7  9  7  8  6  6  7  6 10  0 11  7  9  8  7  7
++         7  8  8  8  9  8  6  8  7  7  8  8 10  8  7  9  8
%c M  cc GPS ccc cccc cccc cccc cccc ccccc ccccc ccccc ccccc
%c cc cc ccc ccc cccc cccc cccc cccc ccccc ccccc ccccc ccccc
%f  0.0000000  0.000000000  0.00000000000  0.000000000000000
%f  0.0000000  0.000000000  0.00000000000  0.000000000000000
%i    0    0    0    0      0      0      0      0         0
%i    0    0    0    0      0      0      0      0         0
/* IAC                                ULTRA-RAPID PREDICTION
/* S/V CLOCKS ARE ALIGNED TO GNSS TIME                      
/* G:C1WC2W R:C1PC2P E:C1XC5X C:C2IC6I J:C1CC2S             
/* PCV:IGS20_2290 OL/AL:FES2004  NONE     YN ORB:CoN CLK:CoN
*  2024 02 29  1 45  0.00000000
PC06 -15860.646838  25697.965188  29361.628426    240.396707
PC07 -10367.694384  40603.192002   5628.609486   -877.448255
PC08    236.079398  25621.861861 -33417.999529      1.703958
PC09  -6759.221284  25460.548647  33242.804133   -554.218878
PC10  -4813.916258  42179.258402   -685.857626     65.617346
PC11  -6048.732571 -14369.432068  23212.687276    434.878273
PC12  13282.418595 -19827.079271  14507.790576    759.067176
PC13   7823.674400  29905.758421 -28362.318196    421.240852
PC14  -7952.996479 -25047.792694  -9280.201827    295.699141
PC16 -19087.728397  25035.826835  28153.970428   -367.530058
PC19  12629.987892  18274.525564  16935.448628   -922.803545
PC20   3052.500415  27691.237926   1923.995416   -208.775739
PC21   9349.168483 -21074.371622  15723.323613   -961.540495
PC22  15518.856818  -2170.029916  23092.733224    -92.528072
PC23 -25555.052885  -4263.173801  10373.013133   -778.397472
PC24  -5209.097566 -18730.038146 -20050.288096    927.587488
PC25 -22332.366264 -15476.434653  -6426.145918    337.603326
PC26  13642.548571 -10939.294479 -21762.012649   -255.872836
PC27 -19781.133420  18511.181730  -6681.693948    277.832529
PC28 -24909.520996   8648.648270   9135.231211    211.613607
PC29  15206.661583   8109.650450 -21955.202503    248.082591
PC30  -3755.285572  19539.230387 -19564.965831    -31.261952
PC32  -9195.190784  21128.849742 -15732.158912   -574.938594
PC33 -12712.108364 -18256.290340 -16827.596388   -952.793204
PC34   2197.686874 -19069.060324  20251.501434    379.563071
PC35  24604.421514  -9457.991374  -9237.941813    422.642528
PC36  21694.374983  16167.012433   6828.800730      1.609654
PC37 -14327.313292  10308.936172  21623.172104   -939.932820
PC38  -8141.947261  22418.563317 -34694.204542    139.732904
PC39 -24544.169754  25118.396266  23226.657682     -7.346971
PC40 -16350.340847  38083.197395   8481.851659    -58.582307
PC41 -15595.596944   1305.061949 -23045.977198   -897.704073
PC42  -2010.457793 -27815.582434   -228.793453   -450.448207
PC43 -14462.920545  -8969.203815  22100.741534     62.259758
PC44  19190.759699 -19233.062433   6435.380730    398.672562
PC45  25464.591281   4224.085782 -10583.736465    -72.940836
PC46   6127.104280  18770.114485  19692.658224   -127.665941
PE02  -4215.735436  20997.715960  20412.196826    107.240282
PE03 -13627.883533  26225.971922   1729.961357    -96.963496
PE04  -1688.576116 -23046.307791 -18488.148926   -338.277204
PE05 -20742.435392  14037.292613 -15769.656003   4724.492358
PE07  15573.543263   6873.247756  24223.048932   -106.263903
PE08   1013.886887  23399.206589  18109.271064   -231.256858
PE09 -15393.176638  -6896.529726 -24319.284578   -352.975469
PE10 -19266.371523 -12073.140468  18948.421581   -605.560951
PE11 -26802.979423  -6772.805314  10542.318480   3214.605244
PE12  -9631.247238 -15175.107162  23513.105971   -926.829908
PE13  26486.388222   7091.884919 -11164.817247    -20.346043
PE14 -13365.277915  -9104.554624  19108.867546     52.724658
PE15   9067.583382  15196.382551 -23722.527137    -88.456272
PE18   9820.799825  19617.509695 -22342.109787    380.179059
PE19  15068.626110 -25476.745666    399.064271   -525.051219
PE21  16983.260392  -3684.125017 -23969.829866   -581.430872
PE24 -20311.768294 -16945.653408  13286.804471   -624.245700
PE25 -17173.643691   3239.420268  23887.582546      1.498463
PE26  27902.545456  -5445.750350   8266.626986    382.394417
PE27  20405.750853  16530.456809 -13650.634026   -286.502711
PE30  11530.919158  26827.988598   4773.012209    -45.160419
PE31 -11759.671856 -26776.404860  -4603.354643    -17.094757
PE33  13989.862979 -14115.934767  21943.135069      8.300291
PE34 -13386.001789  14302.959156 -22191.178097    -97.255333
PE36 -28130.185658   5011.092013  -7692.452246   -192.473811
PG01  15764.132079  11949.278003 -18234.769316    171.579203
PG02   7108.149313  13842.835499 -21071.347471   -478.078567
PG03  11789.224182  23680.942029  -3178.881537    222.571283
PG04   2530.339773  19645.598409  17643.220137    303.191724
PG05  -2860.561265 -21961.266814  14420.226449   -163.569323
PG06  24318.142221  -6104.006830   8998.280576    388.279189
PG07  24211.817173   6580.482565   9899.129644    -73.018394
PG08  -3327.383806  23753.691956 -11021.503603     18.571521
PG09  13073.508203   7867.254589  21658.453102    107.967749
PG10 -16625.190895   -965.004079 -20563.192443      1.076264
PG11  15368.499243 -12033.147691  18015.815871   -591.301490
PG12  -9584.225696 -24544.761263  -3899.230667   -482.539672
PG13  12922.017226 -22619.009261  -4724.426781    629.805493
PG14  18274.244297   4788.767823 -18720.255149    337.991932
PG15    178.518741 -24232.223832 -11120.123421    132.575855
PG16  -4377.343929  18887.798954  17609.839647   -352.241172
PG17  18256.671375  -5710.715347 -18069.823552    715.416698
PG18 -24681.799252  -5607.704140   8368.933148   -565.617056
PG19  19416.504687 -13259.218598 -12176.795894    447.200964
PG20   7318.765367 -14462.420484  21128.952158    385.744545
PG21   1764.818256  14855.745135 -21462.964006    133.211009
PG22  14835.774070  -3492.983248 -21301.438611     23.646957
PG23 -19074.764854 -12811.799546 -13462.506916    166.313044
PG24  -5003.299840 -15408.604639 -21493.210454   -439.138286
PG25 -16971.240065 -19811.470605   5360.219550    489.966236
PG26 -12222.081785   9999.511401  21194.619138    185.114278
PG27 -12557.513965  23130.568935     36.395724     -7.989790
PG28 -25253.656895   5576.222536   6017.758238   -147.134844
PG29 -10918.015354 -10433.827257  21789.905506   -605.962724
PG30  26672.618737  -1055.285414   -769.616976   -426.365871
PG31 -20061.619847  10091.796102  14277.772355   -227.897793
PG32 -18196.011368   9390.258781 -16598.890420   -613.910286
PJ02 -26675.899354  23071.434685  28213.165521     -2.422917
PJ03 -34785.664328  18592.680332 -10291.560510     -0.225121
PJ04 -18803.527190  32254.596228 -14440.612722     50.807366
PR01  -5004.026879  24316.809122  -5882.935282     78.398801
PR02   2572.128670  22553.730611  11618.652126    -22.535265
PR03   9593.711074   8014.707399  22276.970456     95.432428
PR04  10951.590340 -10389.767454  20600.158013    225.467072
PR05   6714.291415 -23342.103995   7849.613316    127.642636
PR07  -9738.668294  -7213.525975 -22406.250987     76.854823
PR08 -10907.323599  10704.305235 -20347.674480    -74.583566
PR09 -14148.767466 -17278.012053 -12238.443217    172.603240
PR11 -17670.964710  -2104.728106  18273.099292     32.822900
PR12  -2132.540160  11841.619921  22507.654993     37.259841
PR13  12203.295713  17234.965747  14283.451289    -44.818597
PR14  21554.724181  12846.880232  -4632.249362     26.124842
PR15  16868.886601   1024.296661 -19095.891473     81.788630
PR16   2262.462367 -11557.655562 -22620.294469     23.632941
PR17  19209.189146    187.987964 -16755.050940     65.005098
PR18  23868.746434  -8908.115890  -1761.981118    129.737430
PR19  17942.123965 -12820.491252  12825.712294   -267.579673
PR20  -2246.493985 -10218.718426  23274.088477   -109.009511
PR21 -19346.711713   -148.523445  16634.615895    -80.694385
PR22 -23967.590833   8675.381907    720.051341    110.399132
PR24   3489.190392  10300.449275 -23056.017173    -45.824461
PR26 -10950.526618   9788.716441 -20836.057047   -196.063965
EOF
